ENTRYSAT                
1 44429U 98067QP  19278.14039359  .00008742  00000-0  14503-3 0  9991
2 44429  51.6411 174.8696 0004062  96.9086 263.2366 15.52967126 14629
VCC C                   
1 44430U 98067QQ  19277.94836290  .00009806  00000-0  16136-3 0  9995
2 44430  51.6405 175.8377 0004244 104.9005 255.2455 15.53034319 13410
VCC B                   
1 44431U 98067QR  19278.01817324  .00007362  00000-0  12417-3 0  9995
2 44431  51.6409 175.5536 0004342 102.3065 257.8411 15.52776621 14549
